[{"OBJECT_NAME":"STARLINK-32849","OBJECT_ID":"2025-022U","EPOCH":"2026-03-09T13:04:55.223904","MEAN_MOTION":15.30188738,"ECCENTRICITY":0.00013003,"INCLINATION":53.158,"RA_OF_ASC_NODE":130.6007,"ARG_OF_PERICENTER":92.1741,"MEAN_ANOMALY":267.9408,"EPHEMERIS_TYPE":0,"CLASSIFICATION_TYPE":"U","NORAD_CAT_ID":62872,"ELEMENT_SET_NO":999,"REV_AT_EPOCH":6187,"BSTAR":0.00066320546,"MEAN_MOTION_DOT":0.00019327,"MEAN_MOTION_DDOT":0},{"OBJECT_NAME":"CERISE","OBJECT_ID":"1995-033B","EPOCH":"2026-03-09T23:11:27.589056","MEAN_MOTION":15.32047731,"ECCENTRICITY":0.00057118,"INCLINATION":98.325,"RA_OF_ASC_NODE":273.5192,"ARG_OF_PERICENTER":211.8754,"MEAN_ANOMALY":148.214,"EPHEMERIS_TYPE":0,"CLASSIFICATION_TYPE":"U","NORAD_CAT_ID":23606,"ELEMENT_SET_NO":999,"REV_AT_EPOCH":66468,"BSTAR":0.00062940675,"MEAN_MOTION_DOT":0.00019422,"MEAN_MOTION_DDOT":0}]
